CENTISPACE-1 S4         
1 53758U 22108B   26161.42347172  .00000538  00000+0  14432-3 0  9999
2 53758  53.5306  80.7772 0008192 323.5439  36.4978 14.61922618200573
BLUEWALKER-3            
1 53807U 22111AL  26161.03268586  .00006029  00000+0  16814-3 0  9993
2 53807  53.2293  67.5573 0006861 140.7558 219.3945 15.38180975209105
YUNHAI-1 03             
1 53877U 22115A   26161.55289214  .00000275  00000+0  11716-3 0  9995
2 53877  98.5532 159.7843 0005968  71.3829 288.8003 14.32713500194569
CENTISPACE-1 S5         
1 54020U 22126A   26161.45631891  .00000623  00000+0  15735-3 0  9991
2 54020  54.9985 239.8953 0014381  60.0150 300.2270 14.63004663196059
CENTISPACE-1 S6         
1 54021U 22126B   26161.51452177  .00000442  00000+0  12393-3 0  9993
2 54021  54.9988 241.4967 0016235  59.9300 300.3301 14.62283889196022
OTB-3-GAZELLE           
1 54023U 22127A   26161.47095723  .00000129  00000+0  51894-4 0  9993
2 54023  98.3941 153.2776 0012524 203.8686 156.1925 14.42672016193395
ASO-S                   
1 54029U 22129A   26161.50081198  .00000186  00000+0  56848-4 0  9993
2 54029  98.2747 166.6770 0015652 111.4138 248.8729 14.52058496194457
HJ-2E                   
1 54035U 22132A   26161.51442207  .00006972  00000+0  30456-3 0  9992
2 54035  97.3799 166.0113 0021391  37.8070 322.4664 15.22214061203402
COSMOS 2561             
1 54109U 22137A   26161.51943693  .00012746  00000+0  21633-3 0  9997
2 54109  96.9186 220.7704 0011396  57.9604 302.2755 15.51532978205314
GONETS-M 23             
1 54150U 22139A   26161.50102426  .00000040  00000+0  22112-3 0  9992
2 54150  82.5072 352.4505 0020684 234.9093 125.0047 12.42890525164812
GONETS-M 24             
1 54151U 22139B   26161.55462093  .00000046  00000+0  26192-3 0  9995
2 54151  82.4983 351.4815 0015832 245.4375 114.5055 12.42891162164826
GONETS-M 25             
1 54152U 22139C   26161.54099755  .00000037  00000+0  19796-3 0  9998
2 54152  82.5054 352.1728 0019756 244.0604 115.8440 12.42889816164822
SKIF-D                  
1 54153U 22139D   26160.26236661  .00000013  00000+0  00000+0 0  9994
2 54153  89.9519  96.6699 0007384 202.8670 157.1456  5.00429725 63713
MATS                    
1 54227U 22147A   26161.46821353  .00002940  00000+0  20960-3 0  9998
2 54227  97.6827 163.0943 0011321 215.1343 144.9138 15.05317645196759
JILIN-1 GAOFEN 03D54    
1 54254U 22155D   26161.50572271  .00277772  31984-4  74778-3 0  9997
2 54254  97.6102 313.7435 0004103 265.5736  94.5070 15.94352900199232
EOS-6 (OCEANSAT-3)      
1 54361U 22158A   26161.52441690  .00000218  00000+0  71991-4 0  9995
2 54361  98.3539 259.8070 0001547  55.7852 304.3487 14.46996448186872
DONGPO 09               
1 54685U 22167D   26161.50570454  .00010898  00000+0  31138-3 0  9996
2 54685  97.6894 332.2159 0003383 131.0494 229.1041 15.36185162194424
DONGPO 08               
1 54686U 22167E   26161.53975149  .00009710  00000+0  30201-3 0  9991
2 54686  97.6857 329.4609 0008160 182.5985 177.5216 15.33511755194301
2022-167F               
1 54687U 22167F   26161.10345734  .00213712  18731-4  73203-3 0  9999
2 54687  97.6112 348.1595 0001046 184.5927 175.5336 15.89700177195707
DONGPO 10               
1 54689U 22167H   26161.54989336  .00010445  00000+0  31665-3 0  9990
2 54689  97.6939 331.4072 0006111 128.7857 231.3932 15.34317416194343
JILIN-1 GAOFEN 03D48    
1 54695U 22167P   26161.48571517  .00011019  00000+0  32587-3 0  9990
2 54695  97.6873 330.7162 0007405 134.8953 225.2892 15.35076555194367
STAR VIBE               
1 55009U 23001A   26161.48863147  .00013279  00000+0  30868-3 0  9991
2 55009  97.3176 225.9260 0007009 131.2266 228.9586 15.42430612191196
BRO-8                   
1 55011U 23001C   26161.52291104  .00029785  00000+0  55727-3 0  9997
2 55011  97.3220 226.6124 0006881 141.8893 218.2845 15.48644236191179
CONNECTA T1.2           
1 55012U 23001D   26161.20061149  .00038568  00000+0  68265-3 0  9997
2 55012  97.3278 231.7696 0006818 123.0964 237.0943 15.50178440191467
BIRKELAND               
1 55015U 23001G   26161.51888666  .00008340  00000+0  21121-3 0  9990
2 55015  97.3350 229.4719 0008243 124.2780 235.9248 15.39956795191328
ION SCV-008             
1 55051U 23001AU  26161.23330331  .00005836  00000+0  21257-3 0  9997
2 55051  97.5703 257.4357 0015655  42.1631 318.0809 15.28493698190274
ION SCV-007             
1 55060U 23001BD  26161.42588933  .00000348  00000+0  55838-4 0  9997
2 55060  97.9008 224.5748 0012356   4.5598 355.5723 14.77547309185259
HUYGENS                 
1 55093U 23001CN  26161.51897976  .00009008  00000+0  22768-3 0  9990
2 55093  97.3255 228.7106 0011197 106.5460 253.7017 15.39962372191342
SHARJAHSAT-1            
1 55104U 23001CZ  26161.45873698  .00018136  00000+0  33857-3 0  9994
2 55104  97.3176 230.1325 0007188 122.7232 237.4713 15.48803998191451
HORUS 1                 
1 55690U 23025A   26161.51912770  .00004856  00000+0  20622-3 0  9992
2 55690  97.3465 236.2540 0002207 125.7382 234.4061 15.23532405183037
