OBJECT_NAME,OBJECT_ID,EPOCH,MEAN_MOTION,ECCENTRICITY,INCLINATION,RA_OF_ASC_NODE,ARG_OF_PERICENTER,MEAN_ANOMALY,EPHEMERIS_TYPE,CLASSIFICATION_TYPE,NORAD_CAT_ID,ELEMENT_SET_NO,REV_AT_EPOCH,BSTAR,MEAN_MOTION_DOT,MEAN_MOTION_DDOT
CENTISPACE-1 S4,2022-108B,2026-06-10T10:09:47.956608,14.61922618,.0008192,53.5306,80.7772,323.5439,36.4978,0,U,53758,999,20057,.14432E-3,.538E-5,0
BLUEWALKER-3,2022-111AL,2026-06-10T00:47:04.058304,15.38180975,.00068615,53.2293,67.5573,140.7558,219.3945,0,U,53807,999,20910,.16814126E-3,.6029E-4,0
YUNHAI-1 03,2022-115A,2026-06-10T13:16:09.880896,14.32713500,.0005968,98.5532,159.7843,71.3829,288.8003,0,U,53877,999,19456,.11716E-3,.275E-5,0
CENTISPACE-1 S5,2022-126A,2026-06-10T10:57:05.953824,14.63004663,.0014381,54.9985,239.8953,60.0150,300.2270,0,U,54020,999,19605,.15735E-3,.623E-5,0
CENTISPACE-1 S6,2022-126B,2026-06-10T12:20:54.680928,14.62283889,.0016235,54.9988,241.4967,59.9300,300.3301,0,U,54021,999,19602,.12393E-3,.442E-5,0
OTB-3-GAZELLE,2022-127A,2026-06-10T11:18:10.704672,14.42672016,.0012524,98.3941,153.2776,203.8686,156.1925,0,U,54023,999,19339,.51894E-4,.129E-5,0
ASO-S,2022-129A,2026-06-10T12:01:10.155072,14.52058496,.0015652,98.2747,166.6770,111.4138,248.8729,0,U,54029,999,19445,.56848E-4,.186E-5,0
HJ-2E,2022-132A,2026-06-10T12:20:46.066848,15.22214061,.0021391,97.3799,166.0113,37.8070,322.4664,0,U,54035,999,20340,.30456E-3,.6972E-4,0
COSMOS 2561,2022-137A,2026-06-10T12:27:59.350752,15.51532978,.0011396,96.9186,220.7704,57.9604,302.2755,0,U,54109,999,20531,.21633E-3,.12746E-3,0
GONETS-M 23,2022-139A,2026-06-10T12:01:28.496064,12.42890525,.0020684,82.5072,352.4505,234.9093,125.0047,0,U,54150,999,16481,.22112E-3,.4E-6,0
GONETS-M 24,2022-139B,2026-06-10T13:18:39.248352,12.42891162,.0015832,82.4983,351.4815,245.4375,114.5055,0,U,54151,999,16482,.26192E-3,.46E-6,0
GONETS-M 25,2022-139C,2026-06-10T12:59:02.188320,12.42889816,.0019756,82.5054,352.1728,244.0604,115.8440,0,U,54152,999,16482,.19796E-3,.37E-6,0
SKIF-D,2022-139D,2026-06-09T06:17:48.475104,5.00429725,.00073846,89.9519,96.6699,202.8670,157.1456,0,U,54153,999,6371,0,.13E-6,0
MATS,2022-147A,2026-06-10T11:14:13.648992,15.05317645,.0011321,97.6827,163.0943,215.1343,144.9138,0,U,54227,999,19675,.2096E-3,.294E-4,0
JILIN-1 GAOFEN 03D54,2022-155D,2026-06-10T12:08:14.442144,15.94352900,.0004103,97.6102,313.7435,265.5736,94.5070,0,U,54254,999,19923,.74778E-3,.277772E-2,.31984E-4
EOS-6 (OCEANSAT-3),2022-158A,2026-06-10T12:35:09.620160,14.46996448,.0001547,98.3539,259.8070,55.7852,304.3487,0,U,54361,999,18687,.71991E-4,.218E-5,0
DONGPO 09,2022-167D,2026-06-10T12:08:12.872256,15.36185162,.0003383,97.6894,332.2159,131.0494,229.1041,0,U,54685,999,19442,.31138E-3,.10898E-3,0
DONGPO 08,2022-167E,2026-06-10T12:57:14.528736,15.33511755,.000816,97.6857,329.4609,182.5985,177.5216,0,U,54686,999,19430,.30201E-3,.971E-4,0
2022-167F,2022-167F,2026-06-10T02:28:58.714176,15.89700177,.00010465,97.6112,348.1595,184.5927,175.5336,0,U,54687,999,19570,.73203074E-3,.213712E-2,.18730849E-4
DONGPO 10,2022-167H,2026-06-10T13:11:50.786304,15.34317416,.0006111,97.6939,331.4072,128.7857,231.3932,0,U,54689,999,19434,.31665E-3,.10445E-3,0
JILIN-1 GAOFEN 03D48,2022-167P,2026-06-10T11:39:25.790688,15.35076555,.0007405,97.6873,330.7162,134.8953,225.2892,0,U,54695,999,19436,.32587E-3,.11019E-3,0
STAR VIBE,2023-001A,2026-06-10T11:43:37.759008,15.42430612,.0007009,97.3176,225.9260,131.2266,228.9586,0,U,55009,999,19119,.30868E-3,.13279E-3,0
BRO-8,2023-001C,2026-06-10T12:32:59.513856,15.48644236,.0006881,97.3220,226.6124,141.8893,218.2845,0,U,55011,999,19117,.55727E-3,.29785E-3,0
CONNECTA T1.2,2023-001D,2026-06-10T04:48:52.832736,15.50178440,.0006818,97.3278,231.7696,123.0964,237.0943,0,U,55012,999,19146,.68265E-3,.38568E-3,0
BIRKELAND,2023-001G,2026-06-10T12:27:11.807424,15.39956795,.0008243,97.3350,229.4719,124.2780,235.9248,0,U,55015,999,19132,.21121E-3,.834E-4,0
ION SCV-008,2023-001AU,2026-06-10T05:35:57.405984,15.28493698,.0015655,97.5703,257.4357,42.1631,318.0809,0,U,55051,999,19027,.21257E-3,.5836E-4,0
ION SCV-007,2023-001BD,2026-06-10T10:13:16.838112,14.77547309,.0012356,97.9008,224.5748,4.5598,355.5723,0,U,55060,999,18525,.55838E-4,.348E-5,0
HUYGENS,2023-001CN,2026-06-10T12:27:19.851264,15.39962372,.0011197,97.3255,228.7106,106.5460,253.7017,0,U,55093,999,19134,.22768E-3,.9008E-4,0
SHARJAHSAT-1,2023-001CZ,2026-06-10T11:00:34.875072,15.48803998,.0007188,97.3176,230.1325,122.7232,237.4713,0,U,55104,999,19145,.33857E-3,.18136E-3,0
HORUS 1,2023-025A,2026-06-10T12:27:32.633280,15.23532405,.0002207,97.3465,236.2540,125.7382,234.4061,0,U,55690,999,18303,.20622E-3,.4856E-4,0
